COSMOS 1892             
1 18421U 87088A   20153.50975980  .00000604  00000-0  28680-4 0  9999
2 18421  82.4996 289.3172 0016529 118.8530 241.4365 15.17139981782138
SL-14 R/B               
1 18749U 88001B   20153.17617925  .00000070  00000-0  56503-5 0  9996
2 18749  82.5149  12.9020 0018625 356.7684 143.1012 14.83218957729452
COSMOS 1933             
1 18958U 88020A   20153.35753705  .00000090  00000-0  44972-5 0  9995
2 18958  82.5275 141.1414 0010787 198.7853 161.2976 15.03723211753835
SL-3 R/B                
1 19046U 88032B   20153.28020386  .00000919  00000-0  72281-4 0  9994
2 19046  97.4031 175.0629 0036815 260.9649  98.7410 15.02708989734535
SL-16 R/B               
1 19120U 88039B   20153.46836530 -.00000039  00000-0  45047-5 0  9995
2 19120  71.0134 202.3008 0023111 326.7021  33.2649 14.19211519659657
COSMOS 1953             
1 19210U 88050A   20153.16822756  .00000920  00000-0  61101-4 0  9996
2 19210  82.5186  65.6385 0013043 168.0822 192.0716 15.05970785719219
SL-8 R/B                
1 19257U 88053B   20153.02260682  .00000033  00000-0  19712-4 0  9995
2 19257  74.0502  31.1988 0020154  11.8024  89.7240 14.37468217673641
COSMOS 1975             
1 19573U 88093A   20152.99853751 -.00000037  00000-0 -46988-5 0  9992
2 19573  82.5213  20.1230 0013420 213.9936 146.0433 15.04882140722172
SL-14 R/B               
1 19574U 88093B   20153.58266437  .00000056  00000-0  38587-5 0  9993
2 19574  82.5333 214.8820 0022391 150.8210 321.4652 14.83329115688519
SL-16 R/B               
1 19650U 88102B   20153.37572550 -.00000311  00000-0 -13360-3 0  9998
2 19650  71.0004 263.7134 0015351 330.6743  29.3517 14.15791349628605
INTERCOSMOS 24          
1 20261U 89080A   20153.17177861  .00000177  00000-0  43357-4 0  9996
2 20261  82.6070  30.8114 1203431 125.3960 246.5646 12.56116813401959
SL-14 R/B               
1 20262U 89080C   20152.83324372  .00000000  00000-0 -13620-5 0  9997
2 20262  82.5951  84.5831 1236001 315.0902  35.6379 12.48941170396914
DELTA 2 R/B(1)          
1 20303U 89085B   20152.33711190  .00001912  00000-0  63422-4 0  9997
2 20303  35.6212 118.0303 0094432  23.5627 336.9387 15.27298677665440
DELTA 1 R/B             
1 20323U 89089B   20153.26085207  .00000048  00000-0  21719-4 0  9991
2 20323  97.0881 301.6730 0070174 282.2719  77.0627 14.48346980590522
ARIANE 40 R/B           
1 20443U 90005H   20153.51046604 -.00000013  00000-0  10382-4 0  9997
2 20443  98.5766 215.3597 0011002  36.8472 323.3469 14.38088759589827
DELTA 2 R/B(1)          
1 20453U 90008B   20152.81936641  .00001049  00000-0  60980-4 0  9990
2 20453  35.6255 354.4083 0280568 166.2284 194.6277 14.85545387608726
COSMOS 2058             
1 20465U 90010A   20153.41762280  .00000145  00000-0  99889-5 0  9996
2 20465  82.4886 288.7702 0013930 253.3501 106.6193 14.98008499625926
SL-14 R/B               
1 20466U 90010B   20153.19819372  .00000058  00000-0  43829-5 0  9993
2 20466  82.5042  81.9897 0021407  34.5317 325.7282 14.81384785616326
SL-14 R/B               
1 20511U 90018B   20153.04255806  .00000059  00000-0  46988-5 0  9992
2 20511  82.5247  28.4417 0017736 166.9154 306.4951 14.80040782610684
HST                     
1 20580U 90037B   20152.17937292  .00000387  00000-0  12520-4 0  9996
2 20580  28.4700  73.9150 0002480 263.9548 242.5578 15.09390734453358
SL-16 R/B               
1 20625U 90046B   20153.02991762  .00000020  00000-0  35404-4 0  9993
2 20625  71.0000  42.6735 0016410 266.8864  93.0381 14.14650470550291
COSMOS 2084             
1 20663U 90055A   20153.57003966 -.00000069  00000-0  11203-4 0  9990
2 20663  62.7944 221.2183 0029308 254.1555 105.6307 14.92086366620981
SL-6 R/B(2)             
1 20666U 90055D   20153.35721421 -.00000044  00000-0  13865-4 0  9991
2 20666  62.7848 138.3951 0042074 337.7888  22.1382 14.92336945622899
SL-8 R/B                
1 20775U 90078B   20153.33693235  .00000893  00000-0  42964-4 0  9999
2 20775  82.9286 239.9114 0572470 244.5804 109.5101 14.34305173503432
SL-8 R/B                
1 21088U 91006B   20153.32846208  .00000080  00000-0  65699-4 0  9996
2 21088  82.9411 297.2023 0022781 173.0014 249.2685 13.77148170473994
OKEAN-3                 
1 21397U 91039A   20153.16077172  .00000205  00000-0  17274-4 0  9998
2 21397  82.5219 192.1821 0016747 220.0653 139.9333 14.92925207570899
COSMOS 2151             
1 21422U 91042A   20153.43113825  .00000144  00000-0  11690-4 0  9995
2 21422  82.4993 298.1945 0012673 288.5706  71.4137 14.92132012548499
SL-14 R/B               
1 21423U 91042B   20153.09900473  .00000057  00000-0  45384-5 0  9992
2 21423  82.4957  32.1940 0016534 316.6607  43.3305 14.79791228562287
ERS-1                   
1 21574U 91050A   20152.43617217  .00000019  00000-0  21206-4 0  9990
2 21574  98.5965 105.7896 0032621 339.9368  20.0534 14.37744335512658
ARIANE 40 R/B           
1 21610U 91050F   20153.08843553  .00000000  00000-0  13753-4 0  9995
2 21610  98.4655 222.4852 0002276 327.5111  93.4554 14.40904521515349
INTERCOSMOS 25          
1 21819U 91086A   20152.64264972 -.00000369  00000-0 -76664-4 0  9998
2 21819  82.5911 136.4143 1514318 307.8216  39.4931 12.05141268242266
SL-8 R/B                
1 21876U 92008B   20153.59381807  .00000055  00000-0  41371-4 0  9995
2 21876  82.9289  34.2138 0033405 257.9013 163.4701 13.75657937419691
SL-8 R/B                
1 21938U 92020B   20153.38219439  .00000050  00000-0  35639-4 0  9991
2 21938  82.9300 278.4886 0030332  60.0629 352.8234 13.75285140411463
COSMOS 2219             
1 22219U 92076A   20153.29581907 -.00000162  00000-0 -60754-4 0  9999
2 22219  71.0612 101.4642 0018117 187.8240 172.2603 14.13649009420533
SL-16 R/B               
1 22220U 92076B   20153.54106510  .00000228  00000-0  13845-3 0  9991
2 22220  71.0002 305.0784 0010934  62.2025   0.2151 14.16454519423425
COSMOS 2221             
1 22236U 92080A   20153.35158904  .00000150  00000-0  13635-4 0  9998
2 22236  82.5068 118.8710 0017276  20.4971 339.6936 14.87922628466888
SL-16 R/B               
1 22285U 92093B   20153.25407953  .00000152  00000-0  10285-3 0  9995
2 22285  71.0217 106.5004 0006439 277.4810  82.5581 14.15046810415049
COSMOS 2228             
1 22286U 92094A   20153.23891936  .00000128  00000-0  11100-4 0  9994
2 22286  82.5215  75.1924 0022217 132.0220 228.2893 14.88140694462031
SL-16 R/B               
1 22566U 93016B   20152.92612323  .00000190  00000-0  12275-3 0  9998
2 22566  71.0059 320.4434 0012257 286.7652  73.2126 14.14964290404007
COSMOS 2242             
1 22626U 93024A   20152.87887264  .00000172  00000-0  15964-4 0  9995
2 22626  82.5214 103.6501 0020036 132.7757 227.5150 14.87996369466393
SL-16 R/B               
1 22803U 93059B   20153.30508889 -.00000195  00000-0 -73180-4 0  9993
2 22803  70.9888 133.2969 0017439 188.4752 171.6079 14.16822196381271
ARIANE 40 R/B           
1 22830U 93061H   20153.57593344 -.00000027  00000-0  70163-5 0  9997
2 22830  98.7661 202.6205 0011073  15.0102 345.1407 14.31450362392559
COSMOS 2278             
1 23087U 94023A   20153.32907068  .00000206  00000-0  13377-3 0  9996
2 23087  71.0551 261.3542 0008934 353.9682   6.1332 14.13810992346910
SL-16 R/B               
1 23088U 94023B   20152.36107871 -.00000186  00000-0 -72048-4 0  9994
2 23088  70.9988 176.9979 0005877 265.9990  94.0460 14.14686508348167
SL-16 R/B               
1 23343U 94074B   20153.04663951  .00000015  00000-0  94575-5 0  9995
2 23343  98.0002 206.1910 0006488 192.2088 228.4854 14.76824435376206
SL-16 R/B               
1 23405U 94077B   20153.15832966 -.00000221  00000-0 -88989-4 0  9995
2 23405  70.9833 104.7242 0001410 190.1340 169.9754 14.15222111318058
ERS-2                   
1 23560U 95021A   20152.93839257  .00000493  00000-0  24663-4 0  9990
2 23560  98.5398 304.1861 0002639 208.9828 151.1259 15.23166274339646
ARIANE 40+ R/B          
1 23561U 95021B   20153.10085392  .00000021  00000-0  22095-4 0  9998
2 23561  98.7251 192.0414 0005899 308.6237 108.4472 14.37969999316442
SL-16 R/B               
1 23705U 95058B   20152.76431700  .00000212  00000-0  13335-3 0  9995
2 23705  71.0223 283.9657 0010517  93.6271 266.6055 14.15135005269918
SL-16 R/B               
1 24298U 96051B   20152.80223469 -.00000036  00000-0  70021-5 0  9995
2 24298  70.8419 305.6269 0013830   8.6967 351.4390 14.12500169224268
ORBVIEW 2 (SEASTAR)     
1 24883U 97037A   20153.27795169  .00000044  00000-0  31769-4 0  9996
2 24883  98.6087 266.6475 0003127 135.0294 225.1144 14.33556364206397
SL-16 R/B               
1 25400U 98043G   20152.72734390 -.00000024  00000-0  82796-5 0  9994
2 25400  98.6068  88.9642 0010510  29.6567 330.5207 14.25454128138861
SL-16 R/B               
1 25407U 98045B   20153.58414543 -.00000197  00000-0 -75837-4 0  9992
2 25407  71.0116 290.9565 0008035 344.2536  15.8336 14.15797985128839
ISS (ZARYA)             
1 25544U 98067A   20153.54320602  .00001076  00000-0  27327-4 0  9992
2 25544  51.6447  65.8979 0001935  19.3406 354.2937 15.49406784229592
SL-8 R/B                
1 25723U 99022C   20153.21402553  .00014382  00000-0  10319-3 0  9999
2 25723  48.4098  93.5099 0005275 264.5859  95.4492 15.73825392175424
CZ-4B R/B               
1 25732U 99025C   20153.09940675 -.00000025  00000-0  10332-4 0  9996
2 25732  98.9451 181.7212 0036297 256.7825 166.9123 14.17676924 89643
OKEAN-O                 
1 25860U 99039A   20153.04520467  .00000024  00000-0  11140-4 0  9997
2 25860  98.2146 171.7585 0000829  82.8178 277.3125 14.76662121123098
SL-16 R/B               
1 25861U 99039B   20152.88750017  .00000029  00000-0  11483-4 0  9990
2 25861  98.2072 154.7182 0014992 206.8075 213.6804 14.78578371125174
DELTA 2 R/B             
1 25876U 99041E   20153.06836584 -.00000161  00000-0  12067-4 0  9991
2 25876  51.7689  15.0318 0530411 296.3970  58.3447 14.04429817 66322
